[{"OBJECT_NAME":"FLOCK 4G-17","OBJECT_ID":"2025-009CA","EPOCH":"2026-03-09T22:51:51.984864","MEAN_MOTION":15.27385439,"ECCENTRICITY":0.00036407,"INCLINATION":97.3966,"RA_OF_ASC_NODE":151.0229,"ARG_OF_PERICENTER":339.6132,"MEAN_ANOMALY":20.4962,"EPHEMERIS_TYPE":0,"CLASSIFICATION_TYPE":"U","NORAD_CAT_ID":62681,"ELEMENT_SET_NO":999,"REV_AT_EPOCH":12139,"BSTAR":0.00053710713,"MEAN_MOTION_DOT":0.00014342,"MEAN_MOTION_DDOT":0},{"OBJECT_NAME":"STARLINK-33613","OBJECT_ID":"2025-053X","EPOCH":"2026-03-09T12:11:06.722016","MEAN_MOTION":15.27620712,"ECCENTRICITY":0.00013561,"INCLINATION":42.9944,"RA_OF_ASC_NODE":242.9737,"ARG_OF_PERICENTER":287.6156,"MEAN_ANOMALY":72.4548,"EPHEMERIS_TYPE":0,"CLASSIFICATION_TYPE":"U","NORAD_CAT_ID":63286,"ELEMENT_SET_NO":999,"REV_AT_EPOCH":5616,"BSTAR":0.00092726252,"MEAN_MOTION_DOT":0.00025374,"MEAN_MOTION_DDOT":0}]
